OBJECT_NAME,OBJECT_ID,EPOCH,MEAN_MOTION,ECCENTRICITY,INCLINATION,RA_OF_ASC_NODE,ARG_OF_PERICENTER,MEAN_ANOMALY,EPHEMERIS_TYPE,CLASSIFICATION_TYPE,NORAD_CAT_ID,ELEMENT_SET_NO,REV_AT_EPOCH,BSTAR,MEAN_MOTION_DOT,MEAN_MOTION_DDOT
STARS (KUKAI),2009-002G,2026-05-09T09:57:28.389024,14.95487826,.0007028,98.1532,75.1558,306.6385,53.4187,0,U,33498,999,93268,.23353E-3,.2523E-4,0
KKS-1 (KISEKI),2009-002H,2026-05-09T11:05:28.654080,14.83022827,.0009198,98.1192,51.2937,61.0138,299.1996,0,U,33499,999,93045,.12762E-3,.982E-5,0
UK-DMC 2,2009-041C,2026-05-09T12:23:52.556064,14.75966285,.0001664,97.8780,265.4422,81.7954,278.3444,0,U,35683,999,90086,.27715E-4,.141E-5,0
OCEANSAT-2,2009-051A,2026-05-09T12:36:50.156064,13.99647902,.0015338,98.2299,120.2412,350.2432,9.8435,0,U,35931,999,87392,.37901E-5,-.32E-6,0
SWISSCUBE,2009-051B,2026-05-09T07:21:22.781952,14.62405622,.0006464,98.4059,36.5157,346.0075,14.0945,0,U,35932,999,88347,.16264E-3,.773E-5,0
BEESAT-1,2009-051C,2026-05-09T07:06:04.363776,14.61656191,.0005314,98.3987,36.2211,3.5007,356.6230,0,U,35933,999,88350,.14056E-3,.65E-5,0
ITUPSAT1,2009-051E,2026-05-08T05:24:05.910624,14.60379872,.0007794,98.4072,34.3677,12.9733,347.1666,0,U,35935,999,88290,.14375E-3,.647E-5,0
DMSP 5D-3 F18 (USA 210),2009-057A,2026-05-09T12:43:00.895872,14.14874407,.0011235,98.9024,110.3877,7.3091,352.8244,0,U,35951,999,85412,.13837E-3,.223E-5,0
PROBA-2,2009-059B,2026-05-09T10:49:14.000736,14.54845851,.0014138,98.2451,313.3416,44.7239,315.5096,0,U,36037,999,87589,.4278E-4,.138E-5,0
YAOGAN-7,2009-069A,2026-05-09T10:21:43.384032,14.77970783,.0024989,98.0117,15.5295,161.1322,199.0821,0,U,36110,999,88390,.53806E-4,.337E-5,0
XIWANG-1 (HOPE-1),2009-072B,2026-05-09T11:37:26.549184,13.16436056,.0007249,100.4006,83.9400,327.2534,32.8129,0,U,36122,999,78791,-.10227E-2,-.435E-5,0
COSMOS 2463,2010-017A,2026-05-09T12:43:41.534112,13.71663067,.0035045,82.9582,278.1111,236.0705,190.7855,0,U,36519,999,80263,.52766E-4,.63E-6,0
CARTOSAT-2B,2010-035A,2026-05-09T11:55:00.088320,14.78613531,.0010539,97.9979,180.2874,322.1242,37.9226,0,U,36795,999,85413,.10641E-3,.727E-5,0
TISAT 1,2010-035E,2026-05-09T08:34:54.306336,15.30249315,.0003837,98.0692,72.5163,59.9584,300.2034,0,U,36799,999,86176,.55266E-3,.16108E-3,0
YAOGAN-10,2010-038A,2026-05-09T13:32:03.372288,14.85228958,.0001373,97.9005,153.2752,89.3834,62.1920,0,U,36834,999,85147,.13629E-3,.1115E-4,0
SHIJIAN-6 04B (SJ-6 04B),2010-051B,2026-05-09T12:20:01.097376,14.99261331,.0012992,97.8744,134.5299,75.8942,284.3724,0,U,37180,999,84988,.4575E-4,.497E-5,0
FENGYUN 3B,2010-059A,2026-05-09T13:39:16.310592,14.14834269,.0021135,98.9648,175.4138,297.7622,220.6189,0,U,37214,999,80196,.31021E-3,.554E-5,0
COSMO-SKYMED 4,2010-060A,2026-05-09T11:45:51.577056,14.82153063,.0001418,97.8892,313.6506,82.9620,277.1754,0,U,37216,999,83883,.54255E-4,.38E-5,0
O/OREOS (USA 219),2010-062C,2026-05-09T11:38:55.993056,14.93583853,.0013274,71.9687,167.9932,147.0619,213.1381,0,U,37224,999,11086,.13362E-3,.1349E-4,0
RESOURCESAT-2,2011-015A,2026-05-09T10:46:29.343072,14.21603578,.0011413,98.7656,197.1545,15.4835,344.6690,0,U,37387,999,78067,.47186E-4,.59E-6,0
YOUTHSAT,2011-015B,2026-05-09T11:55:40.437120,14.25613713,.0015734,98.3664,105.3016,94.9738,30.6257,0,U,37388,999,78212,.81523E-4,.152E-5,0
APRIZESAT 6,2011-044F,2026-05-09T08:03:22.619808,14.76862740,.004242,98.2383,39.0393,208.7572,266.0309,0,U,37793,999,79141,.73303E-4,.466E-5,0
JUGNU,2011-058B,2026-05-09T06:21:14.507136,14.13765144,.0018659,19.9593,184.8941,7.2231,48.7115,0,U,37839,999,75351,.64463E-4,.39E-5,0
SRMSAT,2011-058D,2026-05-09T11:24:57.701376,14.11567103,.0011752,19.9729,293.7862,137.8638,248.7184,0,U,37841,999,75234,.69174E-4,.392E-5,0
SUOMI NPP,2011-061A,2026-05-09T12:03:44.907840,14.19509030,.0002858,98.7937,70.6473,80.3183,279.8315,0,U,37849,999,75295,.55795E-4,.73E-6,0
YAOGAN-12,2011-066B,2026-05-09T12:29:34.682784,15.26104355,.0010117,97.1174,169.9153,14.1470,346.0051,0,U,37875,999,80614,.3749E-3,.9618E-4,0
