STARS (KUKAI)           
1 33498U 09002G   26129.41491191  .00002523  00000+0  23353-3 0  9998
2 33498  98.1532  75.1558 0007028 306.6385  53.4187 14.95487826932686
KKS-1 (KISEKI)          
1 33499U 09002H   26129.46213720  .00000982  00000+0  12762-3 0  9993
2 33499  98.1192  51.2937 0009198  61.0138 299.1996 14.83022827930456
UK-DMC 2                
1 35683U 09041C   26129.51658051  .00000141  00000+0  27715-4 0  9991
2 35683  97.8780 265.4422 0001664  81.7954 278.3444 14.75966285900860
OCEANSAT-2              
1 35931U 09051A   26129.52558051 -.00000032  00000+0  37901-5 0  9997
2 35931  98.2299 120.2412 0015338 350.2432   9.8435 13.99647902873921
SWISSCUBE               
1 35932U 09051B   26129.30651368  .00000773  00000+0  16264-3 0  9997
2 35932  98.4059  36.5157 0006464 346.0075  14.0945 14.62405622883476
BEESAT-1                
1 35933U 09051C   26129.29588384  .00000650  00000+0  14056-3 0  9994
2 35933  98.3987  36.2211 0005314   3.5007 356.6230 14.61656191883501
ITUPSAT1                
1 35935U 09051E   26128.22506841  .00000647  00000+0  14375-3 0  9996
2 35935  98.4072  34.3677 0007794  12.9733 347.1666 14.60379872882906
DMSP 5D-3 F18 (USA 210) 
1 35951U 09057A   26129.52987148  .00000223  00000+0  13837-3 0  9999
2 35951  98.9024 110.3877 0011235   7.3091 352.8244 14.14874407854124
PROBA-2                 
1 36037U 09059B   26129.45085649  .00000138  00000+0  42780-4 0  9999
2 36037  98.2451 313.3416 0014138  44.7239 315.5096 14.54845851875898
YAOGAN-7                
1 36110U 09069A   26129.43175213  .00000337  00000+0  53806-4 0  9999
2 36110  98.0117  15.5295 0024989 161.1322 199.0821 14.77970783883905
XIWANG-1 (HOPE-1)       
1 36122U 09072B   26129.48433506 -.00000435  00000+0 -10227-2 0  9992
2 36122 100.4006  83.9400 0007249 327.2534  32.8129 13.16436056787911
COSMOS 2463             
1 36519U 10017A   26129.53034183  .00000063  00000+0  52766-4 0  9998
2 36519  82.9582 278.1111 0035045 236.0705 190.7855 13.71663067802635
CARTOSAT-2B             
1 36795U 10035A   26129.49652880  .00000727  00000+0  10641-3 0  9991
2 36795  97.9979 180.2874 0010539 322.1242  37.9226 14.78613531854135
TISAT 1                 
1 36799U 10035E   26129.35757299  .00016108  00000+0  55266-3 0  9992
2 36799  98.0692  72.5163 0003837  59.9584 300.2034 15.30249315861768
YAOGAN-10               
1 36834U 10038A   26129.56392792  .00001115  00000+0  13629-3 0  9990
2 36834  97.9005 153.2752 0001373  89.3834  62.1920 14.85228958851477
SHIJIAN-6 04B (SJ-6 04B)
1 37180U 10051B   26129.51390159  .00000497  00000+0  45750-4 0  9993
2 37180  97.8744 134.5299 0012992  75.8942 284.3724 14.99261331849887
FENGYUN 3B              
1 37214U 10059A   26129.56893878  .00000554  00000+0  31021-3 0  9999
2 37214  98.9648 175.4138 0021135 297.7622 220.6189 14.14834269801963
COSMO-SKYMED 4          
1 37216U 10060A   26129.49018029  .00000380  00000+0  54255-4 0  9994
2 37216  97.8892 313.6506 0001418  82.9620 277.1754 14.82153063838835
O/OREOS (USA 219)       
1 37224U 10062C   26129.48537029  .00001349  00000+0  13362-3 0  9999
2 37224  71.9687 167.9932 0013274 147.0619 213.1381 14.93583853110864
RESOURCESAT-2           
1 37387U 11015A   26129.44895073  .00000059  00000+0  47186-4 0  9999
2 37387  98.7656 197.1545 0011413  15.4835 344.6690 14.21603578780676
YOUTHSAT                
1 37388U 11015B   26129.49699580  .00000152  00000+0  81523-4 0  9997
2 37388  98.3664 105.3016 0015734  94.9738  30.6257 14.25613713782129
APRIZESAT 6             
1 37793U 11044F   26129.33567847  .00000466  00000+0  73303-4 0  9997
2 37793  98.2383  39.0393 0042420 208.7572 266.0309 14.76862740791417
JUGNU                   
1 37839U 11058B   26129.26475124  .00000390  00000+0  64463-4 0  9994
2 37839  19.9593 184.8941 0018659   7.2231  48.7115 14.13765144753510
SRMSAT                  
1 37841U 11058D   26129.47566784  .00000392  00000+0  69174-4 0  9999
2 37841  19.9729 293.7862 0011752 137.8638 248.7184 14.11567103752345
SUOMI NPP               
1 37849U 11061A   26129.50260310  .00000073  00000+0  55795-4 0  9991
2 37849  98.7937  70.6473 0002858  80.3183 279.8315 14.19509030752954
YAOGAN-12               
1 37875U 11066B   26129.52054031  .00009618  00000+0  37490-3 0  9993
2 37875  97.1174 169.9153 0010117  14.1470 346.0051 15.26104355806142
